NORAD_CAT_ID,OBJECT_NAME,OBJECT_TYPE,EPOCH,MEAN_MOTION,ECCENTRICITY,INCLINATION,RA_OF_ASC_NODE,ARG_OF_PERICENTER,MEAN_ANOMALY,BSTAR,MEAN_MOTION_DOT,MEAN_MOTION_DDOT,TLE_LINE0,TLE_LINE1,TLE_LINE2,SEMIMAJOR_AXIS,PERIOD,APOGEE,PERIGEE,DECAYED
49747.0,STARLINK-3247,PAYLOAD,2022-02-17 14:00:01,15.11419712,0.0001625,53.2179,318.0948,44.6132,3.593,-0.039925,-0.00640342,0.0,0 STARLINK-3247,1 49747U 21115Z   22048.58334491 -.00640342  00000-0 -39925-1 0  9994,2 49747  53.2179 318.0948 0001625  44.6132   3.5930 15.11419712 13047,6910.005999999999,95.275,532.994,530.749,0.0
49747.0,STARLINK-3247,PAYLOAD,2022-02-17 22:00:00,15.10968995,0.000167,53.2177,316.5855,44.0721,18.562,-0.042087,-0.00664946,0.0,0 STARLINK-3247,1 49747U 21115Z   22048.91667824 -.00664946  00000-0 -42087-1 0  9999,2 49747  53.2177 316.5855 0001670  44.0721  18.5620 15.10968995  3630,6911.380999999999,95.303,534.4,532.091,0.0
49747.0,STARLINK-3247,PAYLOAD,2022-02-18 06:00:00,15.10354161,0.000167,53.2174,315.0916,48.5012,28.0812,-0.02951,-0.00459674,0.0,0 STARLINK-3247,1 49747U 21115Z   22049.25001157 -.00459674  00000-0 -29510-1 0  9994,2 49747  53.2174 315.0916 0001670  48.5012  28.0812 15.10354161 13141,6913.255999999999,95.342,536.276,533.967,0.0
49747.0,STARLINK-3247,PAYLOAD,2022-02-18 14:00:01,15.10034034,0.0001591,53.2174,313.577,46.4517,43.3658,-0.042988,-0.00661972,0.0,0 STARLINK-3247,1 49747U 21115Z   22049.58334491 -.00661972  00000-0 -42988-1 0  9990,2 49747  53.2174 313.5770 0001591  46.4517  43.3658 15.10034034 13198,6914.233,95.362,537.198,534.998,0.0
49747.0,STARLINK-3247,PAYLOAD,2022-02-18 22:00:00,15.09569578,0.0001796,53.2175,312.0769,41.9446,60.6214,-0.043863,-0.00666538,0.0,0 STARLINK-3247,1 49747U 21115Z   22049.91667824 -.00666538  00000-0 -43863-1 0  9992,2 49747  53.2175 312.0769 0001796  41.9446  60.6214 15.09569578  3619,6915.651,95.391,538.758,536.274,0.0
49747.0,STARLINK-3247,PAYLOAD,2022-02-19 06:00:00,15.08744658,0.0001505,53.217,310.5883,54.1181,60.7789,0.0077748,0.00125329,0.0,0 STARLINK-3247,1 49747U 21115Z   22050.25001157  .00125329  00000-0  77748-2 0  9998,2 49747  53.2170 310.5883 0001505  54.1181  60.7789 15.08744658 13290,6918.172,95.444,541.078,538.996,0.0
49747.0,STARLINK-3247,PAYLOAD,2022-02-19 14:00:01,15.08804659,0.0001264999999999,53.2158,309.1399,46.4095,80.0738,0.0025433,0.00040382,0.0,0 STARLINK-3247,1 49747U 21115Z   22050.58334491  .00040382  00000-0  25433-2 0  9993,2 49747  53.2158 309.1399 0001265  46.4095  80.0738 15.08804659 13346,6917.988,95.44,540.729,538.9780000000002,0.0
49747.0,STARLINK-3247,PAYLOAD,2022-02-19 22:00:00,15.08847453,0.0001496999999999,53.2128,307.6449,49.6034,88.4559,-0.0014499,-0.00023294,0.0,0 STARLINK-3247,1 49747U 21115Z   22050.91667824 -.00023294  00000-0 -14499-2 0  9994,2 49747  53.2128 307.6449 0001497  49.6034  88.4559 15.08847453  3595,6917.858,95.437,540.758,538.687,0.0
49747.0,STARLINK-3247,PAYLOAD,2022-02-20 06:00:00,15.08836304,0.0001599,53.2101,306.1487,44.5555,105.0918,0.00032486,4.885e-05,0.0,0 STARLINK-3247,1 49747U 21115Z   22051.25001157  .00004885  00000-0  32486-3 0  9993,2 49747  53.2101 306.1487 0001599  44.5555 105.0918 15.08836304 13440,6917.892,95.438,540.863,538.651,0.0
49747.0,STARLINK-3247,PAYLOAD,2022-02-20 14:00:01,15.08816902,0.0001471,53.2097,304.6504,51.3236,109.9206,0.0023304,0.00036972,0.0,0 STARLINK-3247,1 49747U 21115Z   22051.58334491  .00036972  00000-0  23304-2 0  9999,2 49747  53.2097 304.6504 0001471  51.3236 109.9206 15.08816902  3600,6917.951,95.439,540.8340000000002,538.798,0.0
49747.0,STARLINK-3247,PAYLOAD,2022-02-20 22:00:00,15.08847893,0.000164,53.2097,303.1551,49.1397,123.6893,-0.0015572,-0.00024991,0.0,0 STARLINK-3247,1 49747U 21115Z   22051.91667824 -.00024991  00000-0 -15572-2 0  9993,2 49747  53.2097 303.1551 0001640  49.1397 123.6893 15.08847893  3638,6917.856,95.437,540.856,538.587,0.0
49747.0,STARLINK-3247,PAYLOAD,2022-02-21 14:00:01,15.08833067,0.0001574,53.2097,300.1601,52.3319,143.71,0.0025688,0.00040824,0.0,0 STARLINK-3247,1 49747U 21115Z   22052.58334491  .00040824  00000-0  25688-2 0  9998,2 49747  53.2097 300.1601 0001574  52.3319 143.7100 15.08833067 13641,6917.901999999999,95.438,540.855,538.678,0.0
49747.0,STARLINK-3247,PAYLOAD,2022-02-21 22:00:00,15.08864012,0.0001751999999999,53.2098,298.6649,49.4891,158.1594,-0.00097611,-0.000158,0.0,0 STARLINK-3247,1 49747U 21115Z   22052.91667824 -.00015800  00000-0 -97611-3 0  9998,2 49747  53.2098 298.6649 0001752  49.4891 158.1594 15.08864012  3599,6917.807,95.436,540.884,538.46,0.0
49747.0,STARLINK-3247,PAYLOAD,2022-02-22 04:00:00,15.08847123,0.0001799,53.2098,297.5429,45.2713,81.0937,0.0021779,0.00034551,0.0,0 STARLINK-3247,1 49747U 21115Z   22053.16667824  .00034551  00000-0  21779-2 0  9999,2 49747  53.2098 297.5429 0001799  45.2713  81.0937 15.08847123 13737,6917.859,95.437,540.9680000000002,538.479,0.0
49747.0,STARLINK-3247,PAYLOAD,2022-02-22 14:00:01,15.08834007,0.0001602,53.2101,295.6698,51.5555,179.3439,0.0015979,0.0002523,0.0,0 STARLINK-3247,1 49747U 21115Z   22053.58334491  .00025230  00000-0  15979-2 0  9995,2 49747  53.2101 295.6698 0001602  51.5555 179.3439 15.08834007 13797,6917.899,95.438,540.872,538.655,0.0
49747.0,STARLINK-3247,PAYLOAD,2022-02-22 22:00:00,15.0885326,0.0001776,53.2103,294.1747,48.0512,194.4518,-0.00070284,-0.00011461,0.0,0 STARLINK-3247,1 49747U 21115Z   22053.91667824 -.00011461  00000-0 -70284-3 0  9995,2 49747  53.2103 294.1747 0001776  48.0512 194.4518 15.08853260  3612,6917.84,95.437,540.933,538.476,0.0
49747.0,STARLINK-3247,PAYLOAD,2022-02-23 06:00:00,15.08876369,0.0001811,53.2103,292.6779,47.4071,206.6977,-0.0042968,-0.00068095,0.0,0 STARLINK-3247,1 49747U 21115Z   22054.25001157 -.00068095  00000-0 -42968-2 0  9996,2 49747  53.2103 292.6779 0001811  47.4071 206.6977 15.08876369 13906,6917.769,95.435,540.887,538.381,0.0
49747.0,STARLINK-3247,PAYLOAD,2022-02-23 14:00:01,15.0881271,0.0001761,53.2106,291.1797,55.4203,210.2971,0.0025667,0.00040767,0.0,0 STARLINK-3247,1 49747U 21115Z   22054.58334491  .00040767  00000-0  25667-2 0  9993,2 49747  53.2106 291.1797 0001761  55.4203 210.2971 15.08812710  3626,6917.964,95.439,541.047,538.611,0.0
49747.0,STARLINK-3247,PAYLOAD,2022-02-23 20:00:01,15.088454,0.0001863,53.2108,290.0585,53.1355,131.2603,-0.0014997,-0.00024081,0.0,0 STARLINK-3247,1 49747U 21115Z   22054.83334491 -.00024081  00000-0 -14997-2 0  9998,2 49747  53.2108 290.0585 0001863  53.1355 131.2603 15.08845400 13983,6917.864000000001,95.437,541.018,538.44,0.0
49747.0,STARLINK-3247,PAYLOAD,2022-02-23 22:00:00,15.08836748,0.0001926,53.2107,289.6848,51.4783,225.8183,-0.00064989,-0.00010616,0.0,0 STARLINK-3247,1 49747U 21115Z   22054.91667824 -.00010616  00000-0 -64989-3 0  9992,2 49747  53.2107 289.6848 0001926  51.4783 225.8183 15.08836748  3633,6917.89,95.438,541.0880000000002,538.423,0.0
49747.0,STARLINK-3247,PAYLOAD,2022-02-24 14:00:01,15.08825825,0.0001789,53.2108,286.6899,57.5056,242.9741,0.0024424,0.00038782,0.0,0 STARLINK-3247,1 49747U 21115Z   22055.58334491  .00038782  00000-0  24424-2 0  9998,2 49747  53.2108 286.6899 0001789  57.5056 242.9741 15.08825825  3616,6917.924,95.438,541.026,538.5509999999998,0.0
49747.0,STARLINK-3247,PAYLOAD,2022-02-24 22:00:00,15.08847749,0.0001952,53.2108,285.1951,53.0443,259.0329,-0.00060074,-9.839e-05,0.0,0 STARLINK-3247,1 49747U 21115Z   22055.91667824 -.00009839  00000-0 -60074-3 0  9999,2 49747  53.2108 285.1951 0001952  53.0443 259.0329 15.08847749  3599,6917.857,95.437,541.072,538.371,0.0
49747.0,STARLINK-3247,PAYLOAD,2022-02-25 06:00:00,15.08865726,0.0001896,53.2105,283.6981,52.5961,271.0773,-0.0020807,-0.00033274,0.0,0 STARLINK-3247,1 49747U 21115Z   22056.25001157 -.00033274  00000-0 -20807-2 0  9997,2 49747  53.2105 283.6981 0001896  52.5961 271.0773 15.08865726 14200,6917.802,95.436,540.9780000000002,538.355,0.0
49747.0,STARLINK-3247,PAYLOAD,2022-02-25 14:00:01,15.08847262,0.0001758,53.2106,282.2004,59.2508,276.0357,0.00063083,9.768e-05,0.0,0 STARLINK-3247,1 49747U 21115Z   22056.58334491  .00009768  00000-0  63083-3 0  9996,2 49747  53.2106 282.2004 0001758  59.2508 276.0357 15.08847262  3611,6917.858,95.437,540.939,538.507,0.0
49747.0,STARLINK-3247,PAYLOAD,2022-02-25 22:00:00,15.08836906,0.0001882,53.2105,280.7056,53.3425,293.5583,-0.001218,-0.00019619,0.0,0 STARLINK-3247,1 49747U 21115Z   22056.91667824 -.00019619  00000-0 -12180-2 0  9991,2 49747  53.2105 280.7056 0001882  53.3425 293.5583 15.08836906 14307,6917.89,95.438,541.057,538.453,0.0
49747.0,STARLINK-3247,PAYLOAD,2022-02-26 14:00:01,15.08824282,0.0001730999999999,53.21,277.711,60.3555,309.7162,0.0018972,0.00030022,0.0,0 STARLINK-3247,1 49747U 21115Z   22057.58334491  .00030022  00000-0  18972-2 0  9990,2 49747  53.2100 277.7110 0001731  60.3555 309.7162 15.08824282 14402,6917.928000000001,95.439,540.991,538.596,0.0
49747.0,STARLINK-3247,PAYLOAD,2022-02-26 22:00:00,15.08834967,0.0001903,53.2098,276.2163,55.0043,326.6573,-0.00023266,-3.989e-05,0.0,0 STARLINK-3247,1 49747U 21115Z   22057.91667824 -.00003989  00000-0 -23266-3 0  9993,2 49747  53.2098 276.2163 0001903  55.0043 326.6573 15.08834967  3621,6917.896,95.438,541.077,538.444,0.0
49747.0,STARLINK-3247,PAYLOAD,2022-02-27 06:00:00,15.08853441,0.0001839,53.2092,274.7189,55.3542,337.8899,-0.0021735,-0.00034726,0.0,0 STARLINK-3247,1 49747U 21115Z   22058.25001157 -.00034726  00000-0 -21735-2 0  9993,2 49747  53.2092 274.7189 0001839  55.3542 337.8899 15.08853441 14503,6917.839,95.437,540.976,538.432,0.0
49747.0,STARLINK-3247,PAYLOAD,2022-02-27 14:00:01,15.08842729,0.0001758,53.2092,273.2214,61.1695,343.6693,-0.000321,-5.394e-05,0.0,0 STARLINK-3247,1 49747U 21115Z   22058.58334491 -.00005394  00000-0 -32100-3 0  9997,2 49747  53.2092 273.2214 0001758  61.1695 343.6693 15.08842729  3614,6917.871999999999,95.437,540.953,538.521,0.0
